     2              NAVIGATION DATA                         RINEX VERSION / TYPE
CCRINEXN V1.6.0 UX  CDDIS               27-DEC-09 00:51     PGM / RUN BY / DATE 
IGS BROADCAST EPHEMERIS FILE                                COMMENT             
    0.8382E-08 -0.1490E-07 -0.5960E-07  0.1192E-06          ION ALPHA           
    0.9421E+05 -0.1311E+06 -0.1311E+06  0.8520E+06          ION BETA            
   -0.931322574616E-08-0.257571741713E-13   147456     1564 DELTA-UTC: A0,A1,T,W
    15                                                      LEAP SECONDS        
                                                            END OF HEADER       
12 09 12 26 15 59 44.0-0.171356368810E-03 0.511590769747E-11 0.000000000000E+00
    0.180000000000E+02-0.119062500000E+02 0.448411535283E-08 0.193906879615E+01
   -0.791624188423E-06 0.326443871018E-02 0.734440982342E-05 0.515378087234E+04
    0.575984000000E+06 0.596046447754E-07 0.374226323571E-01 0.484287738800E-07
    0.969474569113E+00 0.243781250000E+03-0.559662947591E+00-0.794997400547E-08
    0.327870799992E-09 0.100000000000E+01 0.156300000000E+04 0.000000000000E+00
    0.200000000000E+01 0.000000000000E+00-0.121071934700E-07 0.180000000000E+02
    0.573798000000E+06 0.400000000000E+01 0.000000000000E+00 0.000000000000E+00
22 09 12 26 15 59 44.0 0.183026771992E-03-0.909494701773E-12 0.000000000000E+00
    0.190000000000E+02 0.793750000000E+02 0.513521390227E-08-0.128042573149E+01
    0.407360494137E-05 0.516634865198E-02 0.445544719696E-05 0.515366672516E+04
    0.575984000000E+06 0.521540641785E-07-0.308131322678E+01 0.949949026108E-07
    0.937387231175E+00 0.282593750000E+03-0.188097223622E+01-0.855285626079E-08
   -0.467876631797E-10 0.100000000000E+01 0.156300000000E+04 0.000000000000E+00
    0.200000000000E+01 0.000000000000E+00-0.176951289177E-07 0.190000000000E+02
    0.574500000000E+06 0.000000000000E+00 0.000000000000E+00 0.000000000000E+00
30 09 12 26 15 59 44.0 0.205028802156E-03 0.329691829393E-11 0.000000000000E+00
    0.800000000000E+01-0.116250000000E+02 0.491127600293E-08-0.554677553918E+00
   -0.622123479843E-06 0.118982483400E-01 0.755675137043E-05 0.515363286591E+04
    0.575984000000E+06-0.106170773506E-06-0.137349808942E-01 0.121071934700E-06
    0.954669207633E+00 0.237437500000E+03 0.146943152160E+01-0.838034907518E-08
    0.426803492364E-09 0.100000000000E+01 0.156300000000E+04 0.000000000000E+00
    0.200000000000E+01 0.000000000000E+00-0.791624188423E-08 0.800000000000E+01
    0.575028000000E+06 0.400000000000E+01 0.000000000000E+00 0.000000000000E+00
 1 09 12 26 16  0  0.0-0.738105736673E-04-0.295585778076E-11 0.000000000000E+00
    0.400000000000E+02-0.143125000000E+02 0.594917637850E-08-0.136430252285E+00
   -0.761821866035E-06 0.382621947210E-02 0.731274485588E-05 0.515365651131E+04
    0.576000000000E+06 0.260770320892E-07 0.239397575984E-01 0.577419996262E-07
    0.963383586805E+00 0.243593750000E+03 0.947644952348E+00-0.812390982202E-08
    0.369658254893E-09 0.100000000000E+01 0.156300000000E+04 0.000000000000E+00
    0.200000000000E+01 0.630000000000E+02-0.190921127796E-07 0.400000000000E+02
    0.575688000000E+06 0.400000000000E+01 0.000000000000E+00 0.000000000000E+00
 2 09 12 26 16  0  0.0 0.208207871765E-03 0.454747350886E-11 0.000000000000E+00
    0.100000000000E+03 0.463125000000E+02 0.483377277461E-08-0.273947346787E+01
    0.246614217758E-05 0.924698961899E-02 0.996701419354E-05 0.515375766754E+04
    0.576000000000E+06-0.149011611938E-06 0.210939712785E+01 0.353902578354E-07
    0.940134632290E+00 0.176812500000E+03 0.293107685043E+01-0.798176104381E-08
   -0.211437378644E-09 0.100000000000E+01 0.156300000000E+04 0.000000000000E+00
    0.280000000000E+01 0.000000000000E+00-0.172294676304E-07 0.100000000000E+03
    0.571998000000E+06 0.400000000000E+01 0.000000000000E+00 0.000000000000E+00
 3 09 12 26 16  0  0.0 0.493256375194E-03 0.522959453519E-11 0.000000000000E+00
    0.900000000000E+01-0.217500000000E+02 0.556308886784E-08-0.295503015026E+01
   -0.130012631416E-05 0.127452814486E-01 0.692903995514E-05 0.515367425156E+04
    0.576000000000E+06 0.128522515297E-06 0.958661726120E+00-0.199303030968E-06
    0.926610882137E+00 0.226250000000E+03 0.975143917950E+00-0.829534553444E-08
   -0.978612191697E-10 0.100000000000E+01 0.156300000000E+04 0.000000000000E+00
    0.200000000000E+01 0.000000000000E+00-0.419095158577E-08 0.900000000000E+01
    0.568800000000E+06 0.000000000000E+00 0.000000000000E+00 0.000000000000E+00
 4 09 12 26 16  0  0.0-0.426126178354E-03-0.187583282241E-10 0.000000000000E+00
    0.420000000000E+02 0.381562500000E+02 0.503342394803E-08 0.168797500579E+00
    0.217929482460E-05 0.911356951110E-02 0.963173806667E-05 0.515359936142E+04
    0.576000000000E+06 0.596046447754E-07 0.212748250088E+01 0.143423676491E-06
    0.939316018443E+00 0.180968750000E+03 0.579622187019E+00-0.827927343640E-08
   -0.239295681911E-09 0.100000000000E+01 0.156300000000E+04 0.000000000000E+00
    0.200000000000E+01 0.000000000000E+00-0.605359673500E-08 0.420000000000E+02
    0.568818000000E+06 0.400000000000E+01 0.000000000000E+00 0.000000000000E+00
 5 09 12 26 16  0  0.0-0.237934291363E-04 0.477484718431E-11 0.000000000000E+00
    0.250000000000E+02 0.770937500000E+02 0.453590320859E-08-0.132665175427E+01
    0.400282442570E-05 0.178638333455E-02 0.533275306225E-05 0.515362528229E+04
    0.576000000000E+06 0.130385160446E-07-0.311538572553E+01 0.167638063431E-07
    0.960650019044E+00 0.276687500000E+03 0.285122767296E+00-0.819176992906E-08
    0.164292555255E-10 0.100000000000E+01 0.156300000000E+04 0.000000000000E+00
    0.200000000000E+01 0.000000000000E+00-0.884756445885E-08 0.250000000000E+02
    0.568800000000E+06 0.000000000000E+00 0.000000000000E+00 0.000000000000E+00
 6 09 12 26 16  0  0.0 0.262917950749E-03-0.102318153950E-11 0.000000000000E+00
    0.830000000000E+02-0.178750000000E+02 0.545808449399E-08-0.668551196687E+00
   -0.104121863842E-05 0.583091587760E-02 0.743754208088E-05 0.515365763474E+04
    0.576000000000E+06-0.633299350738E-07 0.102803047069E+01-0.130385160446E-07
    0.933963542050E+00 0.223937500000E+03-0.118102684534E+01-0.849463955012E-08
   -0.114290474943E-09 0.100000000000E+01 0.156300000000E+04 0.000000000000E+00
    0.200000000000E+01 0.000000000000E+00-0.512227416039E-08 0.830000000000E+02
    0.568800000000E+06 0.000000000000E+00 0.000000000000E+00 0.000000000000E+00
 7 09 12 26 16  0  0.0 0.534532591701E-05-0.682121026330E-12 0.000000000000E+00
    0.470000000000E+02-0.667812500000E+02 0.413088635371E-08 0.181925312685E+01
   -0.336393713951E-05 0.323675049003E-02 0.880658626556E-05 0.515373110390E+04
    0.576000000000E+06 0.000000000000E+00-0.101556682559E+01 0.633299350738E-07
    0.969917480728E+00 0.215031250000E+03 0.306110729401E+01-0.784639826255E-08
    0.108218793461E-09 0.100000000000E+01 0.156300000000E+04 0.000000000000E+00
    0.200000000000E+01 0.000000000000E+00-0.107102096081E-07 0.470000000000E+02
    0.574920000000E+06 0.000000000000E+00 0.000000000000E+00 0.000000000000E+00
 8 09 12 26 16  0  0.0 0.138534232974E-05 0.454747350886E-12 0.000000000000E+00
    0.530000000000E+02-0.660625000000E+02 0.367443876941E-08 0.122493670600E+01
   -0.323913991451E-05 0.109908946324E-01 0.853091478348E-05 0.515373362732E+04
    0.576000000000E+06 0.391155481338E-07-0.950791658415E+00 0.204890966415E-06
    0.991232138626E+00 0.231343750000E+03 0.307562357995E+01-0.758995900940E-08
    0.475019786481E-10 0.100000000000E+01 0.156300000000E+04 0.000000000000E+00
    0.400000000000E+01 0.000000000000E+00-0.372529029846E-08 0.530000000000E+02
    0.568818000000E+06 0.400000000000E+01 0.000000000000E+00 0.000000000000E+00
 9 09 12 26 16  0  0.0 0.962954945862E-04 0.227373675443E-11 0.000000000000E+00
    0.280000000000E+02-0.603437500000E+02 0.400730977768E-08 0.103720124373E+01
   -0.338256359100E-05 0.206323595485E-01 0.877119600773E-05 0.515362052536E+04
    0.576000000000E+06-0.312924385071E-06-0.104806482072E+01-0.266358256340E-06
    0.978728042374E+00 0.225468750000E+03 0.152376358808E+01-0.811140930133E-08
    0.782175437889E-10 0.100000000000E+01 0.156300000000E+04 0.000000000000E+00
    0.280000000000E+01 0.000000000000E+00-0.558793544769E-08 0.280000000000E+02
    0.568818000000E+06 0.400000000000E+01 0.000000000000E+00 0.000000000000E+00
10 09 12 26 16  0  0.0-0.312346965075E-04-0.909494701773E-12 0.000000000000E+00
    0.950000000000E+02 0.765312500000E+02 0.461983518107E-08-0.145154459486E+01
    0.399723649025E-05 0.893744919449E-02 0.485777854919E-05 0.515342675591E+04
    0.576000000000E+06 0.149011611938E-06-0.308877702458E+01-0.484287738800E-07
    0.955712320889E+00 0.281687500000E+03 0.632846559731E+00-0.819069789770E-08
    0.625026003176E-10 0.100000000000E+01 0.156300000000E+04 0.000000000000E+00
    0.200000000000E+01 0.000000000000E+00-0.279396772385E-08 0.950000000000E+02
    0.568800000000E+06 0.000000000000E+00 0.000000000000E+00 0.000000000000E+00
11 09 12 26 16  0  0.0-0.363150611520E-04-0.193267624127E-11 0.000000000000E+00
    0.184000000000E+03 0.200000000000E+02 0.622883088438E-08 0.172120626521E+01
    0.108033418655E-05 0.103948416654E-01 0.103786587715E-04 0.515371839333E+04
    0.576000000000E+06-0.277534127235E-06 0.189846805619E+01 0.745058059692E-08
    0.888403498097E+00 0.141687500000E+03 0.778703518184E+00-0.880143804379E-08
   -0.346443002170E-09 0.100000000000E+01 0.156300000000E+04 0.000000000000E+00
    0.280000000000E+01 0.000000000000E+00-0.116415321827E-07 0.184000000000E+03
    0.573720000000E+06 0.000000000000E+00 0.000000000000E+00 0.000000000000E+00
